{
  "type": "FeatureCollection",
  "features": [
    {
      "type": "Feature",
      "properties": {
        "norad_id": 39773,
        "name": "EUTELSAT 3B",
        "group": "eutelsat",
        "lat": -0.009047256289939418,
        "lon": -17.739921344066715,
        "alt_km": 35794.94513596339,
        "timestamp": "2025-12-02T17:49:11.697207+00:00",
        "meta_object_name": "EUTELSAT 3B",
        "meta_object_id": "2014-030A",
        "meta_epoch": "2025-12-02T08:39:46.962144",
        "meta_mean_motion": 1.00270599,
        "meta_eccentricity": 0.0004749,
        "meta_inclination": 0.063,
        "meta_ra_of_asc_node": 359.4396,
        "meta_arg_of_pericenter": 227.4285,
        "meta_mean_anomaly": 337.6427,
        "meta_ephemeris_type": 0,
        "meta_classification_type": "U",
        "meta_norad_cat_id": 39773,
        "meta_element_set_no": 999,
        "meta_rev_at_epoch": 4209,
        "meta_bstar": 0,
        "meta_mean_motion_dot": 4e-07,
        "meta_mean_motion_ddot": 0,
        "tle_line1": "1 39773U 14030A   25336.36096021  .00000040  00000+0  00000+0 0  9995",
        "tle_line2": "2 39773   0.0630 359.4396 0004749 227.4285 337.6427  1.00270599 42093"
      },
      "geometry": {
        "type": "Point",
        "coordinates": [
          -17.739921344066715,
          -0.009047256289939418
        ]
      }
    },
    {
      "type": "Feature",
      "properties": {
        "norad_id": 40425,
        "name": "EUTELSAT 115 WEST B",
        "group": "eutelsat",
        "lat": 0.006464323899323319,
        "lon": -135.7892696036417,
        "alt_km": 35788.793575653,
        "timestamp": "2025-12-02T17:49:11.697222+00:00",
        "meta_object_name": "EUTELSAT 115 WEST B",
        "meta_object_id": "2015-010B",
        "meta_epoch": "2025-12-02T10:37:38.766720",
        "meta_mean_motion": 1.00269409,
        "meta_eccentricity": 4.88e-05,
        "meta_inclination": 0.017,
        "meta_ra_of_asc_node": 149.052,
        "meta_arg_of_pericenter": 249.23,
        "meta_mean_anomaly": 77.7769,
        "meta_ephemeris_type": 0,
        "meta_classification_type": "U",
        "meta_norad_cat_id": 40425,
        "meta_element_set_no": 999,
        "meta_rev_at_epoch": 3942,
        "meta_bstar": 0,
        "meta_mean_motion_dot": -4e-08,
        "meta_mean_motion_ddot": 0,
        "tle_line1": "1 40425U 15010B   25336.44280980 -.00000004  00000+0  00000+0 0  9999",
        "tle_line2": "2 40425   0.0170 149.0520 0000488 249.2300  77.7769  1.00269409 39428"
      },
      "geometry": {
        "type": "Point",
        "coordinates": [
          -135.7892696036417,
          0.006464323899323319
        ]
      }
    },
    {
      "type": "Feature",
      "properties": {
        "norad_id": 40875,
        "name": "EUTELSAT 8 WEST B",
        "group": "eutelsat",
        "lat": -0.01021929099254335,
        "lon": -28.834428893396492,
        "alt_km": 35782.23945744686,
        "timestamp": "2025-12-02T17:49:11.697235+00:00",
        "meta_object_name": "EUTELSAT 8 WEST B",
        "meta_object_id": "2015-039B",
        "meta_epoch": "2025-12-02T08:36:39.760128",
        "meta_mean_motion": 1.002715,
        "meta_eccentricity": 0.0004115,
        "meta_inclination": 0.0662,
        "meta_ra_of_asc_node": 345.0729,
        "meta_arg_of_pericenter": 269.1331,
        "meta_mean_anomaly": 298.4303,
        "meta_ephemeris_type": 0,
        "meta_classification_type": "U",
        "meta_norad_cat_id": 40875,
        "meta_element_set_no": 999,
        "meta_rev_at_epoch": 3768,
        "meta_bstar": 0,
        "meta_mean_motion_dot": -4.5e-07,
        "meta_mean_motion_ddot": 0,
        "tle_line1": "1 40875U 15039B   25336.35879352 -.00000045  00000+0  00000+0 0  9991",
        "tle_line2": "2 40875   0.0662 345.0729 0004115 269.1331 298.4303  1.00271500 37685"
      },
      "geometry": {
        "type": "Point",
        "coordinates": [
          -28.834428893396492,
          -0.01021929099254335
        ]
      }
    },
    {
      "type": "Feature",
      "properties": {
        "norad_id": 41310,
        "name": "EUTELSAT 9B",
        "group": "eutelsat",
        "lat": -0.042307516284905325,
        "lon": -11.844653815114272,
        "alt_km": 35784.213544964456,
        "timestamp": "2025-12-02T17:49:11.697247+00:00",
        "meta_object_name": "EUTELSAT 9B",
        "meta_object_id": "2016-005A",
        "meta_epoch": "2025-12-02T08:41:24.307296",
        "meta_mean_motion": 1.00271004,
        "meta_eccentricity": 0.0004836,
        "meta_inclination": 0.0628,
        "meta_ra_of_asc_node": 74.6272,
        "meta_arg_of_pericenter": 189.4401,
        "meta_mean_anomaly": 306.7388,
        "meta_ephemeris_type": 0,
        "meta_classification_type": "U",
        "meta_norad_cat_id": 41310,
        "meta_element_set_no": 999,
        "meta_rev_at_epoch": 3614,
        "meta_bstar": 0,
        "meta_mean_motion_dot": 8.2e-07,
        "meta_mean_motion_ddot": 0,
        "tle_line1": "1 41310U 16005A   25336.36208689  .00000082  00000+0  00000+0 0  9990",
        "tle_line2": "2 41310   0.0628  74.6272 0004836 189.4401 306.7388  1.00271004 36147"
      },
      "geometry": {
        "type": "Point",
        "coordinates": [
          -11.844653815114272,
          -0.042307516284905325
        ]
      }
    },
    {
      "type": "Feature",
      "properties": {
        "norad_id": 41382,
        "name": "EUTELSAT 65 WEST A",
        "group": "eutelsat",
        "lat": -0.0625601117273975,
        "lon": -86.07588374314342,
        "alt_km": 35775.256080182684,
        "timestamp": "2025-12-02T17:49:11.697259+00:00",
        "meta_object_name": "EUTELSAT 65 WEST A",
        "meta_object_id": "2016-014A",
        "meta_epoch": "2025-12-02T08:20:18.826368",
        "meta_mean_motion": 1.00271105,
        "meta_eccentricity": 0.0002719,
        "meta_inclination": 0.0509,
        "meta_ra_of_asc_node": 341.0284,
        "meta_arg_of_pericenter": 276.9507,
        "meta_mean_anomaly": 233.3555,
        "meta_ephemeris_type": 0,
        "meta_classification_type": "U",
        "meta_norad_cat_id": 41382,
        "meta_element_set_no": 999,
        "meta_rev_at_epoch": 3556,
        "meta_bstar": 0,
        "meta_mean_motion_dot": -2.56e-06,
        "meta_mean_motion_ddot": 0,
        "tle_line1": "1 41382U 16014A   25336.34744012 -.00000256  00000+0  00000+0 0  9996",
        "tle_line2": "2 41382   0.0509 341.0284 0002719 276.9507 233.3555  1.00271105 35563"
      },
      "geometry": {
        "type": "Point",
        "coordinates": [
          -86.07588374314342,
          -0.0625601117273975
        ]
      }
    },
    {
      "type": "Feature",
      "properties": {
        "norad_id": 41589,
        "name": "EUTELSAT 117 WEST B",
        "group": "eutelsat",
        "lat": 0.013620393264313569,
        "lon": -137.88635623238972,
        "alt_km": 35787.65952177277,
        "timestamp": "2025-12-02T17:49:11.697270+00:00",
        "meta_object_name": "EUTELSAT 117 WEST B",
        "meta_object_id": "2016-038B",
        "meta_epoch": "2025-12-02T10:37:38.766720",
        "meta_mean_motion": 1.0026853,
        "meta_eccentricity": 2.02e-05,
        "meta_inclination": 0.0102,
        "meta_ra_of_asc_node": 144.9746,
        "meta_arg_of_pericenter": 219.6495,
        "meta_mean_anomaly": 109.3395,
        "meta_ephemeris_type": 0,
        "meta_classification_type": "U",
        "meta_norad_cat_id": 41589,
        "meta_element_set_no": 999,
        "meta_rev_at_epoch": 3469,
        "meta_bstar": 0,
        "meta_mean_motion_dot": 9e-08,
        "meta_mean_motion_ddot": 0,
        "tle_line1": "1 41589U 16038B   25336.44280980  .00000009  00000+0  00000+0 0  9996",
        "tle_line2": "2 41589   0.0102 144.9746 0000202 219.6495 109.3395  1.00268530 34694"
      },
      "geometry": {
        "type": "Point",
        "coordinates": [
          -137.88635623238972,
          0.013620393264313569
        ]
      }
    },
    {
      "type": "Feature",
      "properties": {
        "norad_id": 42741,
        "name": "EUTELSAT 172B",
        "group": "eutelsat",
        "lat": 0.0024887953966501817,
        "lon": 151.1087415383549,
        "alt_km": 35786.52825971812,
        "timestamp": "2025-12-02T17:49:11.697282+00:00",
        "meta_object_name": "EUTELSAT 172B",
        "meta_object_id": "2017-029B",
        "meta_epoch": "2025-12-02T09:32:38.561856",
        "meta_mean_motion": 1.00270978,
        "meta_eccentricity": 2.23e-05,
        "meta_inclination": 0.0165,
        "meta_ra_of_asc_node": 133.0464,
        "meta_arg_of_pericenter": 122.4326,
        "meta_mean_anomaly": 131.1829,
        "meta_ephemeris_type": 0,
        "meta_classification_type": "U",
        "meta_norad_cat_id": 42741,
        "meta_element_set_no": 999,
        "meta_rev_at_epoch": 3175,
        "meta_bstar": 0,
        "meta_mean_motion_dot": 1.5e-07,
        "meta_mean_motion_ddot": 0,
        "tle_line1": "1 42741U 17029B   25336.39766854  .00000015  00000+0  00000+0 0  9998",
        "tle_line2": "2 42741   0.0165 133.0464 0000223 122.4326 131.1829  1.00270978 31755"
      },
      "geometry": {
        "type": "Point",
        "coordinates": [
          151.1087415383549,
          0.0024887953966501817
        ]
      }
    }
  ]
}